#cP2022  3 12 18  0  0.00000000     576 d+D   IGb14 EXT AIUB
## 2200 583200.00000000   300.00000000 59650 0.7500000000000
+   77   G01G03G04G05G06G07G08G09G10G11G12G13G14G15G16G17G18
+        G19G20G21G22G23G24G25G26G27G28G29G30G31G32R01R02R03
+        R04R05R07R08R09R11R12R13R14R15R17R18R19R20R21R22R24
+        E01E02E03E04E05E07E08E09E10E11E12E13E14E15E18E19E21
+        E24E25E26E27E30E31E33E34E36  0  0  0  0  0  0  0  0
++         5  5  9  7  6  7  7  6  6  8  7  7  7  7  7  7  8
++         8  7  7  7  7  7  6  7  5  7  7  5  7  6  9  7  8
++         8  8  8  8  7  7  7  7  7  7  7  7  9  9  8  8  8
++         5  6  5  7  7  6  6  6  6  6  7  6  7  6  8  8  6
++         6  7  7  5  6  6  6  6  6  0  0  0  0  0  0  0  0
%c M  cc GPS ccc cccc cccc cccc cccc ccccc ccccc ccccc ccccc
%c cc cc ccc ccc cccc cccc cccc cccc ccccc ccccc ccccc ccccc
%f  1.2500000  1.025000000  0.00000000000  0.000000000000000
%f  0.0000000  0.000000000  0.00000000000  0.000000000000000
%i    0    0    0    0      0      0      0      0         0
%i    0    0    0    0      0      0      0      0         0
/* Center for Orbit Determination in Europe (CODE)          
/* Ultra-rapid GRE orbits starting year-day 22071 18 hour   
/* Observed/predicted: 24/24 hours (data used up to 072R)   
/* PCV:IGS14      OL/AL:FES2014b NONE     YN ORB:CoN CLK:BRD
*  2022  3 13 21 35  0.00000000
PG01  14208.947744  -2931.949450  21964.802232    409.671594               P   P
PG03  21775.513171 -11036.692537  10221.838718   -162.157491               P   P
PG04  23672.165863   -968.433842 -12082.958951   -183.841010               P   P
PG05 -16929.891905  -3122.399203 -20426.173446    -74.567177               P   P
PG06  -5240.868456 -25966.233303   1277.441374    230.367171               P   P
PG07   7394.375505 -19145.089819 -16195.262944    315.833859               P   P
PG08  26063.839131   5654.461733   2096.678841    -59.733210               P   P
PG09  15539.959841  -9839.578929 -19238.983954   -349.918060               P   P
PG10  -7317.624874  20821.193717  14706.217357   -346.042290               P   P
PG11 -12628.447665 -19545.833952 -12820.414493    -64.087192               P   P
PG12 -22108.018874   6996.541533  12562.704517   -184.428236               P   P
PG13 -22563.474380 -13511.522989  -4454.072293    276.366682               P   P
PG14   8942.609607 -20829.169853  13775.509326    -93.531297               P   P
PG15 -26471.392797  -2752.982167   2122.160745    -77.027743               P   P
PG16  13675.944657   8092.091535 -21619.143409   -480.290164               P   P
PG17   -552.913743 -15768.913186  21791.438721    586.820033               P   P
PG18  -7458.636135  19241.098923 -16665.584467    220.533855               P   P
PG19  -8982.227321 -16984.903645  18160.880891    130.617022               P   P
PG20 -10399.684140 -11941.002872 -21341.919705    516.314455               P   P
PG21  17059.933548   7983.196302  19635.534849    159.342106               P   P
PG22  11781.168327  17248.424823  16916.614851    227.049748               P   P
PG23 -16046.810631  20585.867438   4625.939695     -6.547181               P   P
PG24 -16402.650074  -1207.582664  20624.275465    268.290650               P   P
PG25 -19723.638893  17470.598998   1470.017202    297.891849               P   P
PG26   3837.237302  17164.367540 -19902.311632    190.546071               P   P
PG27  21862.431212  12768.207717  -8874.310886    152.897024               P   P
PG28   1392.744414 -18343.336322  19757.435695    381.167556               P   P
PG29 -17676.254036   6670.594043 -18741.128811   -490.985334               P   P
PG30   1893.022973 -24503.023378  -9670.818245   -518.525042               P   P
PG31   6596.806813  25421.728432  -1579.263701   -168.791790               P   P
PG32   5343.837265  16428.385757  20358.752418    -84.218901               P   P
PR01   1756.491422  10914.523975  22993.644331      7.224269               P   P
PR02  20481.972959   3783.418913  14816.035988    512.387604               P   P
PR03  24969.888922  -5035.749679  -1774.474087     53.062104               P   P
PR04  15499.441831 -10675.101197 -17191.954215    131.788587               P   P
PR05  -2460.802331 -10531.989429 -23086.051128     89.316119               P   P
PR07 -24767.322501   5398.337145   2659.248975     32.611019               P   P
PR08 -15269.495724  10873.306116  17346.635923    -63.993968               P   P
PR09  -8912.338749  -8154.757978  22470.503430     44.195335               P   P
PR11 -10728.002288  22493.821160   5474.118663     43.604956               P   P
PR12  -1590.045692  22027.024595 -12726.541809     17.426908               P   P
PR13   8057.344213   9341.768790 -22346.663582    -19.415839               P   P
PR14  13527.271095 -10165.998544 -19077.098176     75.343996               P   P
PR15  10743.235906 -22661.310275  -4654.182622     97.570010               P   P
PR17  14584.638610   2997.833297  20711.522741    509.267095               P   P
PR18   3583.517971 -11589.709136  22444.826239    110.160559               P   P
PR19  -8050.571757 -20244.937744  13264.633572   -181.455599               P   P
PR20 -17135.364261 -17619.261015  -6724.526754    -66.678040               P   P
PR21 -13832.767156  -1836.620223 -21356.241836   -285.065576               P   P
PR22  -2809.607302  12343.418501 -22176.923736   -170.397227               P   P
PR24  17770.281413  16752.812531   7372.221803     84.249889               P   P
PE01 -21014.665178  20217.258737   5042.010766   -596.194580               P   P
PE02  20976.406729 -20319.566066  -4904.163461    286.046851               P   P
PE03  20851.059421  -9900.408895 -18524.910957   -537.052003               P   P
PE04   -495.770299  17151.329568  24127.811459   -983.873279               P   P
PE05  29351.177453   3320.986609  -1913.053388   -200.671559               P   P
PE07 -20656.326458 -14406.629834 -15553.153557   -648.031344               P   P
PE08    -43.949194 -17056.030235 -24189.578786   -494.612301               P   P
PE09  20891.176259  14158.712251  15463.322548   5329.585395               P   P
PE10   9689.914017  27907.790704  -1892.945812   -500.335616               P   P
PE11  15162.423874  24030.119665   8332.769359   4237.798693               P   P
PE12   2777.335221  27262.823032 -11219.604156   4715.096520               P   P
PE13 -14907.507819 -24372.260815  -7709.079106    427.255434               P   P
PE14  -8978.227447  18281.726443 -24458.412014  -1777.103409               P   P
PE15  -2749.739785 -27175.010248  11401.722181    757.978786               P   P
PE18  -4885.674913 -17268.109332  17357.007187  -1687.804634               P   P
PE19 -22757.112938   8327.702903  17003.413290  -1264.160902               P   P
PE21 -21387.940186   4845.046436  19870.186427   -722.350340               P   P
PE24   8509.510991  15322.735315 -23867.203408   -503.693189               P   P
PE25  21318.000568  -4598.918642 -20019.507737   -566.689023               P   P
PE26 -18212.159209  -6186.997903 -22490.038889   -908.772089               P   P
PE27  -9538.540313 -14261.754264  24118.834661   -252.450572               P   P
PE30   8804.834634 -24962.262251  13255.274153   -346.063413               P   P
PE31  -7807.450127  24798.402111 -14141.617372   -493.486122               P   P
PE33 -10954.337643  13962.781862 -23685.469895   -458.597351               P   P
PE34  10819.543698 -14169.661175  23626.544551   -506.584848               P   P
PE36  18231.799241   7283.421509  22163.054230   -344.856745               P   P
EOF
